[{"OBJECT_NAME":"ONEWEB-0058","OBJECT_ID":"2020-008AG","EPOCH":"2025-10-14T04:29:02.089536","MEAN_MOTION":13.10373778,"ECCENTRICITY":0.00017057,"INCLINATION":87.8755,"RA_OF_ASC_NODE":85.3295,"ARG_OF_PERICENTER":102.6509,"MEAN_ANOMALY":257.4809,"EPHEMERIS_TYPE":0,"CLASSIFICATION_TYPE":"U","NORAD_CAT_ID":45161,"ELEMENT_SET_NO":999,"REV_AT_EPOCH":27620,"BSTAR":0.00057798971,"MEAN_MOTION_DOT":2.14e-6,"MEAN_MOTION_DDOT":0},{"OBJECT_NAME":"ONEWEB-0059","OBJECT_ID":"2020-008AH","EPOCH":"2025-10-13T11:54:25.804800","MEAN_MOTION":13.10377415,"ECCENTRICITY":0.000162,"INCLINATION":87.8752,"RA_OF_ASC_NODE":85.4679,"ARG_OF_PERICENTER":95.8621,"MEAN_ANOMALY":264.2691,"EPHEMERIS_TYPE":0,"CLASSIFICATION_TYPE":"U","NORAD_CAT_ID":45162,"ELEMENT_SET_NO":999,"REV_AT_EPOCH":27601,"BSTAR":0.00070619813,"MEAN_MOTION_DOT":2.59e-6,"MEAN_MOTION_DDOT":0},{"OBJECT_NAME":"ONEWEB-0062","OBJECT_ID":"2020-008AJ","EPOCH":"2025-10-14T03:11:08.371392","MEAN_MOTION":13.10371108,"ECCENTRICITY":0.00018885,"INCLINATION":87.8746,"RA_OF_ASC_NODE":85.318,"ARG_OF_PERICENTER":98.868,"MEAN_ANOMALY":261.2661,"EPHEMERIS_TYPE":0,"CLASSIFICATION_TYPE":"U","NORAD_CAT_ID":45163,"ELEMENT_SET_NO":999,"REV_AT_EPOCH":27596,"BSTAR":0.0016730559,"MEAN_MOTION_DOT":5.97e-6,"MEAN_MOTION_DDOT":0},{"OBJECT_NAME":"ONEWEB-0065","OBJECT_ID":"2020-008AK","EPOCH":"2025-10-14T04:32:22.486560","MEAN_MOTION":13.10375633,"ECCENTRICITY":0.000174,"INCLINATION":87.875,"RA_OF_ASC_NODE":85.3324,"ARG_OF_PERICENTER":79.5056,"MEAN_ANOMALY":280.6267,"EPHEMERIS_TYPE":0,"CLASSIFICATION_TYPE":"U","NORAD_CAT_ID":45164,"ELEMENT_SET_NO":999,"REV_AT_EPOCH":27566,"BSTAR":-0.00057587044,"MEAN_MOTION_DOT":-1.88e-6,"MEAN_MOTION_DDOT":0},{"OBJECT_NAME":"ONEWEB-0066","OBJECT_ID":"2020-020A","EPOCH":"2025-10-14T07:38:38.773248","MEAN_MOTION":13.11416439,"ECCENTRICITY":0.00013588,"INCLINATION":87.882,"RA_OF_ASC_NODE":70.0269,"ARG_OF_PERICENTER":95.6814,"MEAN_ANOMALY":264.4469,"EPHEMERIS_TYPE":0,"CLASSIFICATION_TYPE":"U","NORAD_CAT_ID":45424,"ELEMENT_SET_NO":999,"REV_AT_EPOCH":27045,"BSTAR":0.0011955014,"MEAN_MOTION_DOT":4.36e-6,"MEAN_MOTION_DDOT":0},{"OBJECT_NAME":"ONEWEB-0067","OBJECT_ID":"2020-020B","EPOCH":"2025-10-14T03:02:59.629056","MEAN_MOTION":13.11397295,"ECCENTRICITY":0.00015251,"INCLINATION":87.8867,"RA_OF_ASC_NODE":69.9699,"ARG_OF_PERICENTER":96.2682,"MEAN_ANOMALY":263.8619,"EPHEMERIS_TYPE":0,"CLASSIFICATION_TYPE":"U","NORAD_CAT_ID":45425,"ELEMENT_SET_NO":999,"REV_AT_EPOCH":27048,"BSTAR":-0.0080289213,"MEAN_MOTION_DOT":-2.831e-5,"MEAN_MOTION_DDOT":0},{"OBJECT_NAME":"ONEWEB-0080","OBJECT_ID":"2020-020C","EPOCH":"2025-10-14T03:16:10.166592","MEAN_MOTION":13.11419237,"ECCENTRICITY":0.000161,"INCLINATION":87.8821,"RA_OF_ASC_NODE":70.0646,"ARG_OF_PERICENTER":108.1172,"MEAN_ANOMALY":252.0131,"EPHEMERIS_TYPE":0,"CLASSIFICATION_TYPE":"U","NORAD_CAT_ID":45426,"ELEMENT_SET_NO":999,"REV_AT_EPOCH":27045,"BSTAR":-0.00061116197,"MEAN_MOTION_DOT":-2.04e-6,"MEAN_MOTION_DDOT":0},{"OBJECT_NAME":"ONEWEB-0090","OBJECT_ID":"2020-020D","EPOCH":"2025-10-14T03:44:16.377504","MEAN_MOTION":13.11417464,"ECCENTRICITY":0.00016573,"INCLINATION":87.8825,"RA_OF_ASC_NODE":70.0626,"ARG_OF_PERICENTER":89.4915,"MEAN_ANOMALY":270.6403,"EPHEMERIS_TYPE":0,"CLASSIFICATION_TYPE":"U","NORAD_CAT_ID":45427,"ELEMENT_SET_NO":999,"REV_AT_EPOCH":27042,"BSTAR":0.0016086639,"MEAN_MOTION_DOT":5.83e-6,"MEAN_MOTION_DDOT":0},{"OBJECT_NAME":"ONEWEB-0061","OBJECT_ID":"2020-020E","EPOCH":"2025-10-14T02:40:32.838816","MEAN_MOTION":13.11434418,"ECCENTRICITY":0.00011466,"INCLINATION":87.8825,"RA_OF_ASC_NODE":70.0501,"ARG_OF_PERICENTER":100.9555,"MEAN_ANOMALY":259.1702,"EPHEMERIS_TYPE":0,"CLASSIFICATION_TYPE":"U","NORAD_CAT_ID":45428,"ELEMENT_SET_NO":999,"REV_AT_EPOCH":27037,"BSTAR":-0.01251279,"MEAN_MOTION_DOT":-4.421e-5,"MEAN_MOTION_DDOT":0},{"OBJECT_NAME":"ONEWEB-0081","OBJECT_ID":"2020-020F","EPOCH":"2025-10-14T07:43:31.761696","MEAN_MOTION":13.11416137,"ECCENTRICITY":0.00014643,"INCLINATION":87.8822,"RA_OF_ASC_NODE":70.0266,"ARG_OF_PERICENTER":95.6486,"MEAN_ANOMALY":264.4809,"EPHEMERIS_TYPE":0,"CLASSIFICATION_TYPE":"U","NORAD_CAT_ID":45429,"ELEMENT_SET_NO":999,"REV_AT_EPOCH":27051,"BSTAR":0.00091103031,"MEAN_MOTION_DOT":3.36e-6,"MEAN_MOTION_DDOT":0},{"OBJECT_NAME":"ONEWEB-0069","OBJECT_ID":"2020-020G","EPOCH":"2025-10-14T07:27:40.423392","MEAN_MOTION":13.11416321,"ECCENTRICITY":0.00015477,"INCLINATION":87.882,"RA_OF_ASC_NODE":70.0248,"ARG_OF_PERICENTER":92.8394,"MEAN_ANOMALY":267.2911,"EPHEMERIS_TYPE":0,"CLASSIFICATION_TYPE":"U","NORAD_CAT_ID":45430,"ELEMENT_SET_NO":999,"REV_AT_EPOCH":27044,"BSTAR":0.0014839463,"MEAN_MOTION_DOT":5.39e-6,"MEAN_MOTION_DDOT":0},{"OBJECT_NAME":"ONEWEB-0031","OBJECT_ID":"2020-020H","EPOCH":"2025-10-14T03:07:37.859520","MEAN_MOTION":13.11418646,"ECCENTRICITY":0.00017419,"INCLINATION":87.8817,"RA_OF_ASC_NODE":70.0874,"ARG_OF_PERICENTER":99.8709,"MEAN_ANOMALY":260.2615,"EPHEMERIS_TYPE":0,"CLASSIFICATION_TYPE":"U","NORAD_CAT_ID":45431,"ELEMENT_SET_NO":999,"REV_AT_EPOCH":27040,"BSTAR":-0.0024458858,"MEAN_MOTION_DOT":-8.54e-6,"MEAN_MOTION_DDOT":0},{"OBJECT_NAME":"ONEWEB-0027","OBJECT_ID":"2020-020J","EPOCH":"2025-10-14T06:32:39.890688","MEAN_MOTION":13.17648472,"ECCENTRICITY":0.00021596,"INCLINATION":87.9104,"RA_OF_ASC_NODE":54.7398,"ARG_OF_PERICENTER":98.6916,"MEAN_ANOMALY":261.4461,"EPHEMERIS_TYPE":0,"CLASSIFICATION_TYPE":"U","NORAD_CAT_ID":45432,"ELEMENT_SET_NO":999,"REV_AT_EPOCH":27397,"BSTAR":-0.00011975676,"MEAN_MOTION_DOT":-3.4e-7,"MEAN_MOTION_DDOT":0},{"OBJECT_NAME":"ONEWEB-0064","OBJECT_ID":"2020-020K","EPOCH":"2025-10-14T03:05:11.841792","MEAN_MOTION":13.11415249,"ECCENTRICITY":0.00018918,"INCLINATION":87.8814,"RA_OF_ASC_NODE":70.0785,"ARG_OF_PERICENTER":96.7884,"MEAN_ANOMALY":263.3459,"EPHEMERIS_TYPE":0,"CLASSIFICATION_TYPE":"U","NORAD_CAT_ID":45433,"ELEMENT_SET_NO":999,"REV_AT_EPOCH":27043,"BSTAR":6.504666e-5,"MEAN_MOTION_DOT":3.6e-7,"MEAN_MOTION_DDOT":0},{"OBJECT_NAME":"ONEWEB-0018","OBJECT_ID":"2020-020L","EPOCH":"2025-10-14T07:31:19.729920","MEAN_MOTION":13.11416997,"ECCENTRICITY":0.00015911,"INCLINATION":87.8821,"RA_OF_ASC_NODE":70.0278,"ARG_OF_PERICENTER":96.503,"MEAN_ANOMALY":263.6279,"EPHEMERIS_TYPE":0,"CLASSIFICATION_TYPE":"U","NORAD_CAT_ID":45434,"ELEMENT_SET_NO":999,"REV_AT_EPOCH":27040,"BSTAR":0.001390658,"MEAN_MOTION_DOT":5.06e-6,"MEAN_MOTION_DDOT":0},{"OBJECT_NAME":"ONEWEB-0083","OBJECT_ID":"2020-020M","EPOCH":"2025-10-14T07:17:54.276288","MEAN_MOTION":13.11416746,"ECCENTRICITY":0.00016525,"INCLINATION":87.8821,"RA_OF_ASC_NODE":70.019,"ARG_OF_PERICENTER":97.4276,"MEAN_ANOMALY":262.704,"EPHEMERIS_TYPE":0,"CLASSIFICATION_TYPE":"U","NORAD_CAT_ID":45435,"ELEMENT_SET_NO":999,"REV_AT_EPOCH":27044,"BSTAR":0.0010756715,"MEAN_MOTION_DOT":3.94e-6,"MEAN_MOTION_DDOT":0},{"OBJECT_NAME":"ONEWEB-0095","OBJECT_ID":"2020-020N","EPOCH":"2025-10-14T03:24:56.116224","MEAN_MOTION":13.11419249,"ECCENTRICITY":0.00021696,"INCLINATION":87.8816,"RA_OF_ASC_NODE":70.0676,"ARG_OF_PERICENTER":78.9135,"MEAN_ANOMALY":281.2237,"EPHEMERIS_TYPE":0,"CLASSIFICATION_TYPE":"U","NORAD_CAT_ID":45436,"ELEMENT_SET_NO":999,"REV_AT_EPOCH":27042,"BSTAR":0.00024941384,"MEAN_MOTION_DOT":1.01e-6,"MEAN_MOTION_DDOT":0}]
