ONEWEB-0058             
1 45161U 20008AG  25287.18682974  .00000214  00000+0  57799-3 0  9992
2 45161  87.8755  85.3295 0001705 102.6509 257.4809 13.10373778276209
ONEWEB-0059             
1 45162U 20008AH  25286.49613200  .00000259  00000+0  70620-3 0  9999
2 45162  87.8752  85.4679 0001620  95.8621 264.2691 13.10377415276014
ONEWEB-0062             
1 45163U 20008AJ  25287.13273578  .00000597  00000+0  16731-2 0  9999
2 45163  87.8746  85.3180 0001888  98.8680 261.2661 13.10371108275968
ONEWEB-0065             
1 45164U 20008AK  25287.18914915 -.00000188  00000+0 -57587-3 0  9995
2 45164  87.8750  85.3324 0001740  79.5056 280.6267 13.10375633275665
ONEWEB-0066             
1 45424U 20020A   25287.31850432  .00000436  00000+0  11955-2 0  9998
2 45424  87.8820  70.0269 0001358  95.6814 264.4469 13.11416439270454
ONEWEB-0067             
1 45425U 20020B   25287.12707904 -.00002831  00000+0 -80289-2 0  9992
2 45425  87.8867  69.9699 0001525  96.2682 263.8619 13.11397295270487
ONEWEB-0080             
1 45426U 20020C   25287.13622878 -.00000204  00000+0 -61116-3 0  9991
2 45426  87.8821  70.0646 0001610 108.1172 252.0131 13.11419237270452
ONEWEB-0090             
1 45427U 20020D   25287.15574511  .00000583  00000+0  16087-2 0  9998
2 45427  87.8825  70.0626 0001657  89.4915 270.6403 13.11417464270427
ONEWEB-0061             
1 45428U 20020E   25287.11149119 -.00004421  00000+0 -12513-1 0  9993
2 45428  87.8825  70.0501 0001146 100.9555 259.1702 13.11434418270378
ONEWEB-0081             
1 45429U 20020F   25287.32189539  .00000336  00000+0  91103-3 0  9990
2 45429  87.8822  70.0266 0001464  95.6486 264.4809 13.11416137270511
ONEWEB-0069             
1 45430U 20020G   25287.31088453  .00000539  00000+0  14839-2 0  9999
2 45430  87.8820  70.0248 0001547  92.8394 267.2911 13.11416321270442
ONEWEB-0031             
1 45431U 20020H   25287.13029930 -.00000854  00000+0 -24459-2 0  9996
2 45431  87.8817  70.0874 0001741  99.8709 260.2615 13.11418646270409
ONEWEB-0027             
1 45432U 20020J   25287.27268392 -.00000034  00000+0 -11976-3 0  9990
2 45432  87.9104  54.7398 0002159  98.6916 261.4461 13.17648472273976
ONEWEB-0064             
1 45433U 20020K   25287.12860928  .00000036  00000+0  65047-4 0  9997
2 45433  87.8814  70.0785 0001891  96.7884 263.3459 13.11415249270434
ONEWEB-0018             
1 45434U 20020L   25287.31342280  .00000506  00000+0  13907-2 0  9993
2 45434  87.8821  70.0278 0001591  96.5030 263.6279 13.11416997270409
ONEWEB-0083             
1 45435U 20020M   25287.30410042  .00000394  00000+0  10757-2 0  9990
2 45435  87.8821  70.0190 0001652  97.4276 262.7040 13.11416746270445
ONEWEB-0095             
1 45436U 20020N   25287.14231616  .00000101  00000+0  24941-3 0  9998
2 45436  87.8816  70.0676 0002169  78.9135 281.2237 13.11419249270424
